[{"OBJECT_NAME":"HULIANWANG DIGUI-145","OBJECT_ID":"2026-007J","EPOCH":"2026-03-03T08:05:24.429120","MEAN_MOTION":13.44957013,"ECCENTRICITY":0.00023939,"INCLINATION":50.0026,"RA_OF_ASC_NODE":105.7349,"ARG_OF_PERICENTER":195.2427,"MEAN_ANOMALY":164.838,"EPHEMERIS_TYPE":0,"CLASSIFICATION_TYPE":"U","NORAD_CAT_ID":67443,"ELEMENT_SET_NO":999,"REV_AT_EPOCH":670,"BSTAR":0.00017841801,"MEAN_MOTION_DOT":-2.4e-7,"MEAN_MOTION_DDOT":0},{"OBJECT_NAME":"NIMBUS 3","OBJECT_ID":"1969-037A","EPOCH":"2026-03-09T15:33:20.006208","MEAN_MOTION":13.42666617,"ECCENTRICITY":0.0039052,"INCLINATION":99.7212,"RA_OF_ASC_NODE":313.1515,"ARG_OF_PERICENTER":204.6392,"MEAN_ANOMALY":210.2333,"EPHEMERIS_TYPE":0,"CLASSIFICATION_TYPE":"U","NORAD_CAT_ID":3890,"ELEMENT_SET_NO":999,"REV_AT_EPOCH":78742,"BSTAR":5.0606e-5,"MEAN_MOTION_DOT":-1.4e-7,"MEAN_MOTION_DDOT":0}]
